[{"OBJECT_NAME":"STARLINK-35006","OBJECT_ID":"2025-184M","EPOCH":"2026-03-09T16:56:58.822368","MEAN_MOTION":15.05641481,"ECCENTRICITY":0.00010949,"INCLINATION":97.6016,"RA_OF_ASC_NODE":122.6826,"ARG_OF_PERICENTER":105.9874,"MEAN_ANOMALY":254.1473,"EPHEMERIS_TYPE":0,"CLASSIFICATION_TYPE":"U","NORAD_CAT_ID":65284,"ELEMENT_SET_NO":999,"REV_AT_EPOCH":3130,"BSTAR":0.00013718764,"MEAN_MOTION_DOT":1.919e-5,"MEAN_MOTION_DDOT":0},{"OBJECT_NAME":"CZ-6A DEB","OBJECT_ID":"2024-140EZ","EPOCH":"2026-03-09T16:13:02.096544","MEAN_MOTION":15.06200416,"ECCENTRICITY":0.00757943,"INCLINATION":89.319,"RA_OF_ASC_NODE":303.8689,"ARG_OF_PERICENTER":93.3463,"MEAN_ANOMALY":267.6449,"EPHEMERIS_TYPE":0,"CLASSIFICATION_TYPE":"U","NORAD_CAT_ID":60774,"ELEMENT_SET_NO":999,"REV_AT_EPOCH":8499,"BSTAR":0.003121721,"MEAN_MOTION_DOT":0.00049072,"MEAN_MOTION_DDOT":0}]
